[{"OBJECT_NAME":"STARLINK-5332","OBJECT_ID":"2023-010S","EPOCH":"2026-03-09T22:54:58.332384","MEAN_MOTION":14.9832634,"ECCENTRICITY":0.00026497,"INCLINATION":70.0033,"RA_OF_ASC_NODE":3.7143,"ARG_OF_PERICENTER":266.7398,"MEAN_ANOMALY":93.3458,"EPHEMERIS_TYPE":0,"CLASSIFICATION_TYPE":"U","NORAD_CAT_ID":55285,"ELEMENT_SET_NO":999,"REV_AT_EPOCH":17468,"BSTAR":0.00037084989,"MEAN_MOTION_DOT":4.334e-5,"MEAN_MOTION_DDOT":0},{"OBJECT_NAME":"HAWK-9A","OBJECT_ID":"2024-066E","EPOCH":"2026-03-09T10:20:39.002208","MEAN_MOTION":14.98777479,"ECCENTRICITY":0.00036271,"INCLINATION":45.6088,"RA_OF_ASC_NODE":72.7153,"ARG_OF_PERICENTER":244.6286,"MEAN_ANOMALY":115.4219,"EPHEMERIS_TYPE":0,"CLASSIFICATION_TYPE":"U","NORAD_CAT_ID":59446,"ELEMENT_SET_NO":999,"REV_AT_EPOCH":10486,"BSTAR":0.00023458946,"MEAN_MOTION_DOT":2.638e-5,"MEAN_MOTION_DDOT":0}]
